{
 "generated_at": "2026-07-18T07:00:39Z",
 "sources": [
  {
   "name": "CelesTrak",
   "url": "https://celestrak.org/NORAD/elements/",
   "license": "frei verfügbar; Attribution. Ursprünglich USSPACECOM/Space-Track."
  },
  {
   "name": "GCAT (J. McDowell, planet4589.org)",
   "url": "https://planet4589.org/space/gcat/",
   "license": "CC-BY 4.0"
  }
 ],
 "satellites": [
  {
   "norad": 60549,
   "name": "ICEYE-X40",
   "intl": "2024-149CK",
   "group": "sar",
   "gcat": {
    "class": "B",
    "category": "IMG-R",
    "owner": "ALYAH",
    "state": "UAE"
   },
   "omm": {
    "OBJECT_NAME": "ICEYE-X40",
    "OBJECT_ID": "2024-149CK",
    "EPOCH": "2026-07-17T15:04:55.488864",
    "MEAN_MOTION": 14.98081367,
    "ECCENTRICITY": 0.0004536,
    "INCLINATION": 97.68,
    "RA_OF_ASC_NODE": 274.6351,
    "ARG_OF_PERICENTER": 359.1312,
    "MEAN_ANOMALY": 0.9902,
    "EPHEMERIS_TYPE": 0,
    "CLASSIFICATION_TYPE": "U",
    "NORAD_CAT_ID": 60549,
    "ELEMENT_SET_NO": 999,
    "REV_AT_EPOCH": 10463,
    "BSTAR": 0.00013034,
    "MEAN_MOTION_DOT": 0.00001484,
    "MEAN_MOTION_DDOT": 0
   }
  },
  {
   "norad": 62700,
   "name": "ICEYE-X41",
   "intl": "2025-009CV",
   "group": "sar",
   "gcat": {
    "class": "B",
    "category": "IMG-R",
    "owner": "ICEUS",
    "state": "US"
   },
   "omm": {
    "OBJECT_NAME": "ICEYE-X41",
    "OBJECT_ID": "2025-009CV",
    "EPOCH": "2026-07-17T11:40:21.821952",
    "MEAN_MOTION": 14.96919985,
    "ECCENTRICITY": 0.0000279,
    "INCLINATION": 97.7059,
    "RA_OF_ASC_NODE": 277.5733,
    "ARG_OF_PERICENTER": 224.1417,
    "MEAN_ANOMALY": 135.9782,
    "EPHEMERIS_TYPE": 0,
    "CLASSIFICATION_TYPE": "U",
    "NORAD_CAT_ID": 62700,
    "ELEMENT_SET_NO": 999,
    "REV_AT_EPOCH": 8194,
    "BSTAR": 0.00014395,
    "MEAN_MOTION_DOT": 0.00001595,
    "MEAN_MOTION_DDOT": 0
   }
  },
  {
   "norad": 62698,
   "name": "ICEYE-X42",
   "intl": "2025-009CT",
   "group": "sar",
   "gcat": {
    "class": "B",
    "category": "IMG-R",
    "owner": "SP42",
    "state": "UAE"
   },
   "omm": {
    "OBJECT_NAME": "ICEYE-X42",
    "OBJECT_ID": "2025-009CT",
    "EPOCH": "2026-07-17T19:00:30.474432",
    "MEAN_MOTION": 14.91825442,
    "ECCENTRICITY": 0.00013026,
    "INCLINATION": 97.7389,
    "RA_OF_ASC_NODE": 276.5545,
    "ARG_OF_PERICENTER": 96.3806,
    "MEAN_ANOMALY": 263.7561,
    "EPHEMERIS_TYPE": 0,
    "CLASSIFICATION_TYPE": "U",
    "NORAD_CAT_ID": 62698,
    "ELEMENT_SET_NO": 999,
    "REV_AT_EPOCH": 8185,
    "BSTAR": 0.000074016789,
    "MEAN_MOTION_DOT": 0.00000692,
    "MEAN_MOTION_DDOT": 0
   }
  },
  {
   "norad": 60539,
   "name": "ICEYE-X43",
   "intl": "2024-149BZ",
   "group": "sar",
   "gcat": {
    "class": "B",
    "category": "IMG-R",
    "owner": "FAB/ICEYE",
    "state": "BR"
   },
   "omm": {
    "OBJECT_NAME": "ICEYE-X43",
    "OBJECT_ID": "2024-149BZ",
    "EPOCH": "2026-07-17T18:53:06.524448",
    "MEAN_MOTION": 14.99789818,
    "ECCENTRICITY": 0.00064027,
    "INCLINATION": 97.6792,
    "RA_OF_ASC_NODE": 275.3412,
    "ARG_OF_PERICENTER": 336.1221,
    "MEAN_ANOMALY": 23.9705,
    "EPHEMERIS_TYPE": 0,
    "CLASSIFICATION_TYPE": "U",
    "NORAD_CAT_ID": 60539,
    "ELEMENT_SET_NO": 999,
    "REV_AT_EPOCH": 10470,
    "BSTAR": 0.00004833532,
    "MEAN_MOTION_DOT": 0.00000539,
    "MEAN_MOTION_DDOT": 0
   }
  },
  {
   "norad": 62707,
   "name": "ICEYE-X44",
   "intl": "2025-009DC",
   "group": "sar",
   "gcat": {
    "class": "B",
    "category": "IMG-R",
    "owner": "SP42",
    "state": "UAE"
   },
   "omm": {
    "OBJECT_NAME": "ICEYE-X44",
    "OBJECT_ID": "2025-009DC",
    "EPOCH": "2026-07-17T18:49:13.102752",
    "MEAN_MOTION": 14.96175356,
    "ECCENTRICITY": 0.00023729,
    "INCLINATION": 97.7058,
    "RA_OF_ASC_NODE": 277.4277,
    "ARG_OF_PERICENTER": 67.2614,
    "MEAN_ANOMALY": 292.8858,
    "EPHEMERIS_TYPE": 0,
    "CLASSIFICATION_TYPE": "U",
    "NORAD_CAT_ID": 62707,
    "ELEMENT_SET_NO": 999,
    "REV_AT_EPOCH": 10451,
    "BSTAR": 0.00011708342,
    "MEAN_MOTION_DOT": 0.00001262,
    "MEAN_MOTION_DDOT": 0
   }
  },
  {
   "norad": 62705,
   "name": "ICEYE-X45",
   "intl": "2025-009DA",
   "group": "sar",
   "gcat": {
    "class": "B",
    "category": "IMG-R",
    "owner": "ICEUS",
    "state": "US"
   },
   "omm": {
    "OBJECT_NAME": "ICEYE-X45",
    "OBJECT_ID": "2025-009DA",
    "EPOCH": "2026-07-17T19:09:13.770720",
    "MEAN_MOTION": 15.0084695,
    "ECCENTRICITY": 0.00010121,
    "INCLINATION": 97.8417,
    "RA_OF_ASC_NODE": 285.739,
    "ARG_OF_PERICENTER": 72.3019,
    "MEAN_ANOMALY": 287.8315,
    "EPHEMERIS_TYPE": 0,
    "CLASSIFICATION_TYPE": "U",
    "NORAD_CAT_ID": 62705,
    "ELEMENT_SET_NO": 999,
    "REV_AT_EPOCH": 8227,
    "BSTAR": 0.00021587323,
    "MEAN_MOTION_DOT": 0.00002683,
    "MEAN_MOTION_DDOT": 0
   }
  },
  {
   "norad": 63258,
   "name": "ICEYE-X46",
   "intl": "2025-052BA",
   "group": "sar",
   "gcat": {
    "class": "B",
    "category": "IMG-R",
    "owner": "ICEYE",
    "state": "FI"
   },
   "omm": {
    "OBJECT_NAME": "ICEYE-X46",
    "OBJECT_ID": "2025-052BA",
    "EPOCH": "2026-07-17T22:28:03.097344",
    "MEAN_MOTION": 14.95371857,
    "ECCENTRICITY": 0.00016445,
    "INCLINATION": 97.6856,
    "RA_OF_ASC_NODE": 90.2357,
    "ARG_OF_PERICENTER": 80.7874,
    "MEAN_ANOMALY": 279.3533,
    "EPHEMERIS_TYPE": 0,
    "CLASSIFICATION_TYPE": "U",
    "NORAD_CAT_ID": 63258,
    "ELEMENT_SET_NO": 999,
    "REV_AT_EPOCH": 7324,
    "BSTAR": 0.000054601704,
    "MEAN_MOTION_DOT": 0.00000546,
    "MEAN_MOTION_DDOT": 0
   }
  },
  {
   "norad": 62389,
   "name": "ICEYE-X47",
   "intl": "2024-247N",
   "group": "sar",
   "gcat": {
    "class": "B",
    "category": "IMG-R",
    "owner": "ICEYE",
    "state": "FI"
   },
   "omm": {
    "OBJECT_NAME": "ICEYE-X47",
    "OBJECT_ID": "2024-247N",
    "EPOCH": "2026-07-17T23:17:35.810304",
    "MEAN_MOTION": 15.13491295,
    "ECCENTRICITY": 0.00011301,
    "INCLINATION": 44.996,
    "RA_OF_ASC_NODE": 192.5541,
    "ARG_OF_PERICENTER": 5.4918,
    "MEAN_ANOMALY": 354.5972,
    "EPHEMERIS_TYPE": 0,
    "CLASSIFICATION_TYPE": "U",
    "NORAD_CAT_ID": 62389,
    "ELEMENT_SET_NO": 999,
    "REV_AT_EPOCH": 8684,
    "BSTAR": 0.000066918123,
    "MEAN_MOTION_DOT": 0.00000961,
    "MEAN_MOTION_DDOT": 0
   }
  },
  {
   "norad": 63253,
   "name": "ICEYE-X48",
   "intl": "2025-052AV",
   "group": "sar",
   "gcat": {
    "class": "B",
    "category": "IMG-R",
    "owner": "ICEUS",
    "state": "US"
   },
   "omm": {
    "OBJECT_NAME": "ICEYE-X48",
    "OBJECT_ID": "2025-052AV",
    "EPOCH": "2026-07-17T15:33:32.407200",
    "MEAN_MOTION": 14.98135134,
    "ECCENTRICITY": 0.0004205,
    "INCLINATION": 97.6839,
    "RA_OF_ASC_NODE": 90.3675,
    "ARG_OF_PERICENTER": 98.4124,
    "MEAN_ANOMALY": 261.7575,
    "EPHEMERIS_TYPE": 0,
    "CLASSIFICATION_TYPE": "U",
    "NORAD_CAT_ID": 63253,
    "ELEMENT_SET_NO": 999,
    "REV_AT_EPOCH": 7323,
    "BSTAR": 0.0001623,
    "MEAN_MOTION_DOT": 0.00001865,
    "MEAN_MOTION_DDOT": 0
   }
  },
  {
   "norad": 62384,
   "name": "ICEYE-X49",
   "intl": "2024-247H",
   "group": "sar",
   "gcat": {
    "class": "B",
    "category": "IMG-R",
    "owner": "ICEYE",
    "state": "FI"
   },
   "omm": {
    "OBJECT_NAME": "ICEYE-X49",
    "OBJECT_ID": "2024-247H",
    "EPOCH": "2026-07-17T08:01:48.831744",
    "MEAN_MOTION": 15.13466886,
    "ECCENTRICITY": 0.00013347,
    "INCLINATION": 44.9994,
    "RA_OF_ASC_NODE": 196.3565,
    "ARG_OF_PERICENTER": 239.0218,
    "MEAN_ANOMALY": 121.0529,
    "EPHEMERIS_TYPE": 0,
    "CLASSIFICATION_TYPE": "U",
    "NORAD_CAT_ID": 62384,
    "ELEMENT_SET_NO": 999,
    "REV_AT_EPOCH": 8674,
    "BSTAR": 0.00009597161,
    "MEAN_MOTION_DOT": 0.00001489,
    "MEAN_MOTION_DDOT": 0
   }
  }
 ]
}
